NORAD_CAT_ID,OBJECT_NAME,OBJECT_TYPE,EPOCH,MEAN_MOTION,ECCENTRICITY,INCLINATION,RA_OF_ASC_NODE,ARG_OF_PERICENTER,MEAN_ANOMALY,BSTAR,MEAN_MOTION_DOT,MEAN_MOTION_DDOT,TLE_LINE0,TLE_LINE1,TLE_LINE2,SEMIMAJOR_AXIS,PERIOD,APOGEE,PERIGEE,DECAYED
50201.0,STARLINK-3255,PAYLOAD,2023-02-21 15:17:02,15.0885948,0.0001224,53.2142,191.33,94.9588,265.1544,0.00058171,8.987e-05,0.0,0 STARLINK-3255,1 50201U 21125AX  23052.63683548  .00008987  00000-0  58171-3 0  9991,2 50201  53.2142 191.3300 0001224  94.9588 265.1544 15.08859480 68858,6917.821,95.436,540.533,538.839,0.0
50201.0,STARLINK-3255,PAYLOAD,2023-02-21 20:03:11,15.08876668,0.0001228,53.2142,190.438,88.9164,271.1969,0.0014105,0.00022254,0.0,0 STARLINK-3255,1 50201U 21125AX  23052.83555320  .00022254  00000-0  14105-2 0  9990,2 50201  53.2142 190.4380 0001228  88.9164 271.1969 15.08876668 68881,6917.768,95.435,540.483,538.784,0.0
50201.0,STARLINK-3255,PAYLOAD,2023-02-22 02:24:44,15.08853645,1.49e-05,53.2143,189.2487,295.1871,64.9105,0.00050576,7.774e-05,0.0,0 STARLINK-3255,1 50201U 21125AX  23053.10051169  .00007774  00000-0  50576-3 0  9996,2 50201  53.2143 189.2487 0000149 295.1871  64.9105 15.08853645 68446,6917.839,95.437,539.807,539.601,0.0
50201.0,STARLINK-3255,PAYLOAD,2023-02-22 13:32:26,15.0884764,0.0001316,53.2146,187.1673,73.1464,286.9672,0.00128,0.00020146,0.0,0 STARLINK-3255,1 50201U 21125AX  23053.56419822  .00020146  00000-0  12800-2 0  9995,2 50201  53.2146 187.1673 0001316  73.1464 286.9672 15.08847640 68995,6917.857,95.437,540.632,538.812,0.0
50201.0,STARLINK-3255,PAYLOAD,2023-02-22 18:18:36,15.08854544,0.0001336,53.2146,186.275,73.1311,286.9828,0.0017237,0.00027262,0.0,0 STARLINK-3255,1 50201U 21125AX  23053.76291680  .00027262  00000-0  17237-2 0  9992,2 50201  53.2146 186.2750 0001336  73.1311 286.9828 15.08854544 68549,6917.836,95.437,540.625,538.777,0.0
50201.0,STARLINK-3255,PAYLOAD,2023-02-22 19:53:59,15.0886103,0.000138,53.2145,185.9781,68.0285,292.0854,0.001984,0.00031447,0.0,0 STARLINK-3255,1 50201U 21125AX  23053.82915602  .00031447  00000-0  19840-2 0  9998,2 50201  53.2145 185.9781 0001380  68.0285 292.0854 15.08861030 69030,6917.816,95.436,540.636,538.726,0.0
50201.0,STARLINK-3255,PAYLOAD,2023-02-23 02:15:32,15.08841857,0.0001717,53.2149,184.7879,71.2196,288.8983,0.00092921,0.00014532,0.0,0 STARLINK-3255,1 50201U 21125AX  23054.09412090  .00014532  00000-0  92921-3 0  9999,2 50201  53.2149 184.7879 0001717  71.2196 288.8983 15.08841857 68591,6917.875,95.437,540.928,538.552,0.0
50201.0,STARLINK-3255,PAYLOAD,2023-02-23 11:47:50,15.08842787,0.0001338,53.2143,183.0034,85.7984,274.3161,0.0008867,0.00013853,0.0,0 STARLINK-3255,1 50201U 21125AX  23054.49156054  .00013853  00000-0  88670-3 0  9999,2 50201  53.2143 183.0034 0001338  85.7984 274.3161 15.08842787 69136,6917.872,95.437,540.662,538.811,0.0
50201.0,STARLINK-3255,PAYLOAD,2023-02-23 13:23:14,15.08842064,0.0001331,53.2145,182.7065,85.6894,274.425,0.0011354,0.00017829,0.0,0 STARLINK-3255,1 50201U 21125AX  23054.55780143  .00017829  00000-0  11354-2 0  9999,2 50201  53.2145 182.7065 0001331  85.6894 274.4250 15.08842064 68665,6917.874,95.437,540.66,538.818,0.0
50201.0,STARLINK-3255,PAYLOAD,2023-02-23 19:44:46,15.08854422,0.0001332,53.2146,181.5171,87.155,272.9594,0.0015549,0.00024555,0.0,0 STARLINK-3255,1 50201U 21125AX  23054.82275968  .00024555  00000-0  15549-2 0  9997,2 50201  53.2146 181.5171 0001332  87.1550 272.9594 15.08854422 69181,6917.836,95.437,540.623,538.78,0.0
50201.0,STARLINK-3255,PAYLOAD,2023-02-24 08:27:51,15.08852381,0.0002379,53.2156,179.1387,102.3233,257.8026,0.0011652,0.00018311,0.0,0 STARLINK-3255,1 50201U 21125AX  23055.35268262  .00018311  00000-0  11652-2 0  9999,2 50201  53.2156 179.1387 0002379 102.3233 257.8026 15.08852381 68783,6917.843,95.437,541.353,538.062,0.0
50201.0,STARLINK-3255,PAYLOAD,2023-02-24 11:38:37,15.08845143,0.0001598,53.2169,178.5457,106.7224,253.3943,0.00081195,0.0001266,0.0,0 STARLINK-3255,1 50201U 21125AX  23055.48516188  .00012660  00000-0  81195-3 0  9997,2 50201  53.2169 178.5457 0001598 106.7224 253.3943 15.08845143 69281,6917.865,95.437,540.835,538.624,0.0
50201.0,STARLINK-3255,PAYLOAD,2023-02-24 14:49:24,15.08848052,0.000156,53.2161,177.9513,97.3749,262.742,0.00052352,8.055e-05,0.0,0 STARLINK-3255,1 50201U 21125AX  23055.61764126  .00008055  00000-0  52352-3 0  9995,2 50201  53.2161 177.9513 0001560  97.3749 262.7420 15.08848052 68820,6917.856,95.437,540.8,538.642,0.0
50201.0,STARLINK-3255,PAYLOAD,2023-02-24 18:00:10,15.08854914,0.0001503,53.2165,177.3568,103.6356,256.4804,0.0007987,0.00012451,0.0,0 STARLINK-3255,1 50201U 21125AX  23055.75011942  .00012451  00000-0  79870-3 0  9990,2 50201  53.2165 177.3568 0001503 103.6356 256.4804 15.08854914 69326,6917.835,95.437,540.74,538.66,0.0
50201.0,STARLINK-3255,PAYLOAD,2023-02-25 13:04:48,15.08833274,0.0001388,53.2156,173.7847,103.9692,256.1455,0.00067798,0.00010517,0.0,0 STARLINK-3255,1 50201U 21125AX  23056.54500994  .00010517  00000-0  67798-3 0  9995,2 50201  53.2156 173.7847 0001388 103.9692 256.1455 15.08833274 68967,6917.901,95.438,540.726,538.806,0.0
50201.0,STARLINK-3255,PAYLOAD,2023-02-25 19:26:21,15.08851392,0.0001309,53.2151,172.5953,107.1001,253.0135,0.0013213,0.0002081,0.0,0 STARLINK-3255,1 50201U 21125AX  23056.80996894  .00020810  00000-0  13213-2 0  9991,2 50201  53.2151 172.5953 0001309 107.1001 253.0135 15.08851392 69480,6917.846,95.437,540.616,538.805,0.0
50201.0,STARLINK-3255,PAYLOAD,2023-02-26 08:09:26,15.08864395,0.0001324,53.2143,170.2163,85.4815,274.6329,0.0013882,0.00021889,0.0,0 STARLINK-3255,1 50201U 21125AX  23057.33988691  .00021889  00000-0  13882-2 0  9995,2 50201  53.2143 170.2163 0001324  85.4815 274.6329 15.08864395 69084,6917.806,95.436,540.587,538.755,0.0
50201.0,STARLINK-3255,PAYLOAD,2023-02-26 11:20:12,15.0886798,0.000126,53.2144,169.6217,90.4098,269.7038,0.0013349,0.00021037,0.0,0 STARLINK-3255,1 50201U 21125AX  23057.47236444  .00021037  00000-0  13349-2 0  9995,2 50201  53.2144 169.6217 0001260  90.4098 269.7038 15.08867980 69585,6917.795,95.436,540.532,538.788,0.0
50201.0,STARLINK-3255,PAYLOAD,2023-02-26 17:41:44,15.08888928,0.0001279,53.2148,168.432,88.53,271.5839,0.001655,0.00026185,0.0,0 STARLINK-3255,1 50201U 21125AX  23057.73731601  .00026185  00000-0  16550-2 0  9995,2 50201  53.2148 168.4320 0001279  88.5300 271.5839 15.08888928 69625,6917.731,95.434,540.481,538.711,0.0
50201.0,STARLINK-3255,PAYLOAD,2023-02-27 00:03:17,15.08844475,0.0001484,53.2152,167.2446,113.069,247.0459,-0.00022758,-3.909e-05,0.0,0 STARLINK-3255,1 50201U 21125AX  23058.00228127 -.00003909  00000-0 -22758-3 0  9999,2 50201  53.2152 167.2446 0001484 113.0690 247.0459 15.08844475 69186,6917.867,95.437,540.758,538.705,0.0
50201.0,STARLINK-3255,PAYLOAD,2023-02-27 15:57:08,15.08885884,0.0001368,53.2143,164.2688,99.3784,260.7362,0.0021432,0.00034029,0.0,0 STARLINK-3255,1 50201U 21125AX  23058.66467600  .00034029  00000-0  21432-2 0  9994,2 50201  53.2143 164.2688 0001368  99.3784 260.7362 15.08885884 69287,6917.74,95.435,540.551,538.659,0.0
50201.0,STARLINK-3255,PAYLOAD,2023-02-27 19:07:54,15.08883946,0.0001135,53.214,163.6728,106.297,253.8147,0.0023433,0.00037248,0.0,0 STARLINK-3255,1 50201U 21125AX  23058.79715483  .00037248  00000-0  23433-2 0  9992,2 50201  53.2140 163.6728 0001135 106.2970 253.8147 15.08883946 69785,6917.746,95.435,540.396,538.826,0.0
50201.0,STARLINK-3255,PAYLOAD,2023-02-27 23:54:04,15.08847015,0.0001865,53.2145,162.7821,86.7496,273.3709,0.00075971,0.00011826,0.0,0 STARLINK-3255,1 50201U 21125AX  23058.99588188  .00011826  00000-0  75971-3 0  9993,2 50201  53.2145 162.7821 0001865  86.7496 273.3709 15.08847015 69338,6917.859,95.437,541.014,538.434,0.0
50201.0,STARLINK-3255,PAYLOAD,2023-02-28 12:37:08,15.08856377,0.0001218,53.2143,160.4053,91.4858,268.6273,0.0011425,0.0001795,0.0,0 STARLINK-3255,1 50201U 21125AX  23059.52579537  .00017950  00000-0  11425-2 0  9998,2 50201  53.2143 160.4053 0001218  91.4858 268.6273 15.08856377 69890,6917.83,95.437,540.538,538.853,0.0
50201.0,STARLINK-3255,PAYLOAD,2023-02-28 18:58:40,15.08872639,0.0001352,53.2146,159.2134,81.8469,278.2676,0.0017194,0.00027207,0.0,0 STARLINK-3255,1 50201U 21125AX  23059.79075079  .00027207  00000-0  17194-2 0  9994,2 50201  53.2146 159.2134 0001352  81.8469 278.2676 15.08872639 69937,6917.781,95.435,540.581,538.71,0.0
50201.0,STARLINK-3255,PAYLOAD,2023-02-28 23:44:50,15.08807674,5.21e-05,53.2143,158.3225,109.8627,250.2422,-0.0021932,-0.00034991,0.0,0 STARLINK-3255,1 50201U 21125AX  23059.98947620 -.00034991  00000-0 -21932-2 0  9990,2 50201  53.2143 158.3225 0000521 109.8627 250.2422 15.08807674 69485,6917.979,95.44,540.205,539.484,0.0
50201.0,STARLINK-3255,PAYLOAD,2023-03-01 10:52:34,15.08811591,0.0001494,53.2139,156.2392,87.7494,272.3669,0.0015332,0.00024178,0.0,0 STARLINK-3255,1 50201U 21125AX  23060.45317461  .00024178  00000-0  15332-2 0  9999,2 50201  53.2139 156.2392 0001494  87.7494 272.3669 15.08811591 69557,6917.967,95.439,540.866,538.799,0.0
50201.0,STARLINK-3255,PAYLOAD,2023-03-01 18:49:30,15.08824763,0.0001567,53.2141,154.7528,82.8228,277.2942,0.0022979,0.00036457,0.0,0 STARLINK-3255,1 50201U 21125AX  23060.78438260  .00036457  00000-0  22979-2 0  9994,2 50201  53.2141 154.7528 0001567  82.8228 277.2942 15.08824763 70089,6917.927,95.439,540.876,538.708,0.0
50201.0,STARLINK-3255,PAYLOAD,2023-03-01 23:35:40,15.08827546,0.0001591,53.2138,153.8618,78.7341,281.3829,0.0019652,0.00031116,0.0,0 STARLINK-3255,1 50201U 21125AX  23060.98310551  .00031116  00000-0  19652-2 0  9999,2 50201  53.2138 153.8618 0001591  78.7341 281.3829 15.08827546 69633,6917.918,95.438,540.884,538.683,0.0
50201.0,STARLINK-3255,PAYLOAD,2023-03-02 17:04:54,15.08880799,0.0001671,53.2139,150.5903,77.9518,282.1661,0.0022819,0.00036256,0.0,0 STARLINK-3255,1 50201U 21125AX  23061.71173796  .00036256  00000-0  22819-2 0  9998,2 50201  53.2139 150.5903 0001671  77.9518 282.1661 15.08880799 70220,6917.756,95.435,540.777,538.465,0.0
